NORAD_CAT_ID,OBJECT_NAME,OBJECT_TYPE,EPOCH,MEAN_MOTION,ECCENTRICITY,INCLINATION,RA_OF_ASC_NODE,ARG_OF_PERICENTER,MEAN_ANOMALY,BSTAR,MEAN_MOTION_DOT,MEAN_MOTION_DDOT,TLE_LINE0,TLE_LINE1,TLE_LINE2,SEMIMAJOR_AXIS,PERIOD,APOGEE,PERIGEE,DECAYED
49768.0,STARLINK-3196,PAYLOAD,2024-03-03 16:01:45,15.08842769,0.0001293,53.2172,203.2511,90.0467,270.0674,-2.57e-05,-6.97e-06,0.0,0 STARLINK-3196,1 49768U 21115AW  24063.66789068 -.00000697  00000-0 -25700-4 0  9991,2 49768  53.2172 203.2511 0001293  90.0467 270.0674 15.08842769124565,6917.872,95.437,540.631,538.842,0.0
49768.0,STARLINK-3196,PAYLOAD,2024-03-04 12:41:45,15.08853515,0.0001081,53.2174,199.3846,89.7526,270.359,9.7035e-05,1.257e-05,0.0,0 STARLINK-3196,1 49768U 21115AW  24064.52899612  .00001257  00000-0  97035-4 0  9995,2 49768  53.2174 199.3846 0001081  89.7526 270.3590 15.08853515125808,6917.839,95.437,540.452,538.956,0.0
49768.0,STARLINK-3196,PAYLOAD,2024-03-04 14:17:08,15.0885594,0.0001199,53.217,199.0876,98.184,261.9288,0.00012579,1.715e-05,0.0,0 STARLINK-3196,1 49768U 21115AW  24064.59523357  .00001715  00000-0  12579-3 0  9990,2 49768  53.2170 199.0876 0001199  98.1840 261.9288 15.08855940124709,6917.832,95.437,540.526,538.867,0.0
49768.0,STARLINK-3196,PAYLOAD,2024-03-04 15:52:31,15.08857328,0.0001236,53.2172,198.7905,99.7131,260.4001,0.00014736,2.059e-05,0.0,0 STARLINK-3196,1 49768U 21115AW  24064.66147214  .00002059  00000-0  14736-3 0  9991,2 49768  53.2172 198.7905 0001236  99.7131 260.4001 15.08857328124712,6917.827,95.436,540.547,538.837,0.0
49768.0,STARLINK-3196,PAYLOAD,2024-03-05 14:07:57,15.08825238,0.0001333,53.216,194.6279,98.841,261.2733,-0.00013986,-2.512e-05,0.0,0 STARLINK-3196,1 49768U 21115AW  24065.58885695 -.00002512  00000-0 -13986-3 0  9997,2 49768  53.2160 194.6279 0001333  98.8410 261.2733 15.08825238124857,6917.926,95.438,540.713,538.868,0.0
49768.0,STARLINK-3196,PAYLOAD,2024-03-05 15:43:20,15.0882527,0.0001317,53.2163,194.3316,95.5719,264.5424,-0.00012711,-2.309e-05,0.0,0 STARLINK-3196,1 49768U 21115AW  24065.65509776 -.00002309  00000-0 -12711-3 0  9997,2 49768  53.2163 194.3316 0001317  95.5719 264.5424 15.08825270125970,6917.925,95.438,540.702,538.879,0.0
49768.0,STARLINK-3196,PAYLOAD,2024-03-06 07:37:11,15.08837744,0.0001582,53.2171,191.3579,95.3796,264.7377,9.0335e-05,1.15e-05,0.0,0 STARLINK-3196,1 49768U 21115AW  24066.31749452  .00001150  00000-0  90335-4 0  9998,2 49768  53.2171 191.3579 0001582  95.3796 264.7377 15.08837744126074,6917.887,95.438,540.847,538.658,0.0
49768.0,STARLINK-3196,PAYLOAD,2024-03-06 13:58:44,15.08846814,0.0001603,53.2165,190.1692,102.1073,258.0099,0.00083452,0.00013021,0.0,0 STARLINK-3196,1 49768U 21115AW  24066.58245611  .00013021  00000-0  83452-3 0  9996,2 49768  53.2165 190.1692 0001603 102.1073 258.0099 15.08846814125006,6917.86,95.437,540.833,538.616,0.0
49768.0,STARLINK-3196,PAYLOAD,2024-03-06 15:34:07,15.08857426,0.0001452,53.2159,189.8712,94.8768,265.2389,0.001208,0.00018999,0.0,0 STARLINK-3196,1 49768U 21115AW  24066.64869529  .00018999  00000-0  12080-2 0  9990,2 49768  53.2159 189.8712 0001452  94.8768 265.2389 15.08857426126124,6917.827,95.436,540.697,538.688,0.0
49768.0,STARLINK-3196,PAYLOAD,2024-03-07 13:49:31,15.08844974,0.0001494,53.2153,185.7083,91.8698,268.2466,0.001188,0.00018672,0.0,0 STARLINK-3196,1 49768U 21115AW  24067.57606108  .00018672  00000-0  11880-2 0  9990,2 49768  53.2153 185.7083 0001494  91.8698 268.2466 15.08844974125154,6917.865,95.437,540.764,538.697,0.0
49768.0,STARLINK-3196,PAYLOAD,2024-03-08 13:40:18,15.08856202,0.000143,53.215,181.2447,89.3403,270.7753,0.00063983,9.914e-05,0.0,0 STARLINK-3196,1 49768U 21115AW  24068.56965564  .00009914  00000-0  63983-3 0  9995,2 49768  53.2150 181.2447 0001430  89.3403 270.7753 15.08856202126416,6917.831,95.437,540.685,538.707,0.0
49768.0,STARLINK-3196,PAYLOAD,2024-03-09 00:47:59,15.08854993,0.0001354,53.2154,179.1629,92.6188,267.4959,0.00038352,5.824e-05,0.0,0 STARLINK-3196,1 49768U 21115AW  24069.03333199  .00005824  00000-0  38352-3 0  9999,2 49768  53.2154 179.1629 0001354  92.6188 267.4959 15.08854993126483,6917.835,95.437,540.636,538.763,0.0
49768.0,STARLINK-3196,PAYLOAD,2024-03-09 13:31:05,15.08843825,0.0001734,53.2152,176.7838,97.8807,262.2382,0.00010465,1.378e-05,0.0,0 STARLINK-3196,1 49768U 21115AW  24069.56325541  .00001378  00000-0  10465-3 0  9994,2 49768  53.2152 176.7838 0001734  97.8807 262.2382 15.08843825126567,6917.869,95.437,540.933,538.534,0.0
49768.0,STARLINK-3196,PAYLOAD,2024-03-10 11:46:29,15.08847024,0.0001426,53.2162,172.6222,87.1931,272.9225,5.9803e-05,6.64e-06,0.0,0 STARLINK-3196,1 49768U 21115AW  24070.49061737  .00000664  00000-0  59803-4 0  9999,2 49768  53.2162 172.6222 0001426  87.1931 272.9225 15.08847024125599,6917.859,95.437,540.71,538.737,0.0
49768.0,STARLINK-3196,PAYLOAD,2024-03-10 16:32:38,15.0884729,0.0001539,53.2165,171.7285,98.7685,261.3482,0.00032735,4.927e-05,0.0,0 STARLINK-3196,1 49768U 21115AW  24070.68933675  .00004927  00000-0  32735-3 0  9999,2 49768  53.2165 171.7285 0001539  98.7685 261.3482 15.08847290126739,6917.858,95.437,540.788,538.658,0.0
49768.0,STARLINK-3196,PAYLOAD,2024-03-11 13:12:38,15.0886214,0.0001172,53.2149,167.8633,89.1462,270.9664,0.00056927,8.789e-05,0.0,0 STARLINK-3196,1 49768U 21115AW  24071.55045054  .00008789  00000-0  56927-3 0  9990,2 49768  53.2149 167.8633 0001172  89.1462 270.9664 15.08862140125754,6917.813,95.436,540.488,538.867,0.0
49768.0,STARLINK-3196,PAYLOAD,2024-03-12 13:03:26,15.0884176,0.0001318,53.2163,163.4024,96.3223,263.7919,1.2396e-05,-9.1e-07,0.0,0 STARLINK-3196,1 49768U 21115AW  24072.54405282 -.00000091  00000-0  12396-4 0  9995,2 49768  53.2163 163.4024 0001318  96.3223 263.7919 15.08841760127012,6917.875,95.437,540.652,538.828,0.0
49768.0,STARLINK-3196,PAYLOAD,2024-03-13 04:57:17,15.0883267,0.0001444,53.2173,160.435,103.1111,257.0042,-9.5354e-05,-1.805e-05,0.0,0 STARLINK-3196,1 49768U 21115AW  24073.20645821 -.00001805  00000-0 -95354-4 0  9994,2 49768  53.2173 160.4350 0001444 103.1111 257.0042 15.08832670127119,6917.903,95.438,540.767,538.769,0.0
49768.0,STARLINK-3196,PAYLOAD,2024-03-13 12:54:14,15.0883463,0.0001488,53.2181,158.9475,111.2538,248.8613,-8.1155e-05,-1.579e-05,0.0,0 STARLINK-3196,1 49768U 21115AW  24073.53766718 -.00001579  00000-0 -81155-4 0  9991,2 49768  53.2181 158.9475 0001488 111.2538 248.8613 15.08834630126051,6917.897,95.438,540.791,538.732,0.0
49768.0,STARLINK-3196,PAYLOAD,2024-03-14 11:09:37,15.08845142,0.0001458,53.2165,154.783,99.744,260.3717,0.00027095,4.027e-05,0.0,0 STARLINK-3196,1 49768U 21115AW  24074.46501893  .00004027  00000-0  27095-3 0  9996,2 49768  53.2165 154.7830 0001458  99.7440 260.3717 15.08845142127304,6917.865,95.437,540.738,538.721,0.0
49768.0,STARLINK-3196,PAYLOAD,2024-03-14 14:20:23,15.08847957,0.0001496,53.2167,154.1883,101.1487,258.9673,0.00031276,4.694e-05,0.0,0 STARLINK-3196,1 49768U 21115AW  24074.59749788  .00004694  00000-0  31276-3 0  9993,2 49768  53.2167 154.1883 0001496 101.1487 258.9673 15.08847957126218,6917.856,95.437,540.756,538.686,0.0
49768.0,STARLINK-3196,PAYLOAD,2024-03-15 04:38:52,15.08837558,0.0001247,53.2168,151.5123,89.7201,270.3934,0.00015161,2.126e-05,0.0,0 STARLINK-3196,1 49768U 21115AW  24075.19366425  .00002126  00000-0  15161-3 0  9996,2 49768  53.2168 151.5123 0001247  89.7201 270.3934 15.08837558127413,6917.888,95.438,540.616,538.89,0.0
49768.0,STARLINK-3196,PAYLOAD,2024-03-15 11:00:24,15.08845944,0.0001331,53.2148,150.3206,86.7587,273.3558,0.00022808,3.344e-05,0.0,0 STARLINK-3196,1 49768U 21115AW  24075.45862148  .00003344  00000-0  22808-3 0  9997,2 49768  53.2148 150.3206 0001331  86.7587 273.3558 15.08845944126342,6917.862,95.437,540.648,538.806,0.0
49768.0,STARLINK-3196,PAYLOAD,2024-03-16 10:51:12,15.08843025,0.000156,53.2153,145.8619,70.0986,290.0174,0.00014851,2.077e-05,0.0,0 STARLINK-3196,1 49768U 21115AW  24076.45222429  .00002077  00000-0  14851-3 0  9991,2 49768  53.2153 145.8619 0001560  70.0986 290.0174 15.08843025127606,6917.871,95.437,540.815,538.657,0.0
49768.0,STARLINK-3196,PAYLOAD,2024-03-17 10:41:59,15.08841511,0.0001624,53.2159,141.4012,91.1211,268.9967,0.00016621,2.358e-05,0.0,0 STARLINK-3196,1 49768U 21115AW  24077.44582561  .00002358  00000-0  16621-3 0  9996,2 49768  53.2159 141.4012 0001624  91.1211 268.9967 15.08841511127755,6917.876,95.437,540.864,538.617,0.0
49768.0,STARLINK-3196,PAYLOAD,2024-03-18 04:11:14,15.08837344,0.0001748,53.2165,138.1309,90.1096,270.0096,7.8448e-05,9.61e-06,0.0,0 STARLINK-3196,1 49768U 21115AW  24078.17446943  .00000961  00000-0  78448-4 0  9994,2 49768  53.2165 138.1309 0001748  90.1096 270.0096 15.08837344127869,6917.889,95.438,540.963,538.544,0.0
49768.0,STARLINK-3196,PAYLOAD,2024-03-18 10:32:46,15.08836111,0.0001661,53.2173,136.9406,104.3285,255.7891,4.9216e-05,4.95e-06,0.0,0 STARLINK-3196,1 49768U 21115AW  24078.43943052  .00000495  00000-0  49216-4 0  9999,2 49768  53.2173 136.9406 0001661 104.3285 255.7891 15.08836111126799,6917.892,95.438,540.906,538.608,0.0
49768.0,STARLINK-3196,PAYLOAD,2024-03-19 10:23:33,15.08848,0.0001722,53.2168,132.4813,105.7999,254.3183,0.00022342,3.27e-05,0.0,0 STARLINK-3196,1 49768U 21115AW  24079.43302444  .00003270  00000-0  22342-3 0  9998,2 49768  53.2168 132.4813 0001722 105.7999 254.3183 15.08848000128051,6917.856,95.437,540.912,538.53,0.0
49768.0,STARLINK-3196,PAYLOAD,2024-03-20 02:17:24,15.08844272,0.0001778,53.2175,129.5103,104.5394,255.5795,0.00019476,2.813e-05,0.0,0 STARLINK-3196,1 49768U 21115AW  24080.09542555  .00002813  00000-0  19476-3 0  9997,2 49768  53.2175 129.5103 0001778 104.5394 255.5795 15.08844272128155,6917.867,95.437,540.962,538.502,0.0
49768.0,STARLINK-3196,PAYLOAD,2024-03-20 08:38:57,15.08841981,0.0001734,53.2168,128.3181,106.2341,253.8842,0.00012492,1.701e-05,0.0,0 STARLINK-3196,1 49768U 21115AW  24080.36038653  .00001701  00000-0  12492-3 0  9992,2 49768  53.2168 128.3181 0001734 106.2341 253.8842 15.08841981127082,6917.874,95.437,540.939,538.54,0.0
